$$SOE
2459580.500000000, A.D. 2022-Jan-01 00:00:00.0000, -2.712503648365124E+09, -5.648639484426194E+09, 4.822216629359579E+08,
2459587.500000000, A.D. 2022-Jan-08 00:00:00.0000, -2.710123022188232E+09, -5.650364305802238E+09, 4.820532403523459E+08,
2459594.500000000, A.D. 2022-Jan-15 00:00:00.0000, -2.707741945515770E+09, -5.652088005501556E+09, 4.818847249372041E+08,
2459601.500000000, A.D. 2022-Jan-22 00:00:00.0000, -2.705360415028957E+09, -5.653810584955225E+09, 4.817161163707302E+08,
2459608.500000000, A.D. 2022-Jan-29 00:00:00.0000, -2.702978426829803E+09, -5.655532043118294E+09, 4.815474144402525E+08,
2459615.500000000, A.D. 2022-Feb-05 00:00:00.0000, -2.700595978648189E+09, -5.657252377141449E+09, 4.813786191879916E+08,
2459622.500000000, A.D. 2022-Feb-12 00:00:00.0000, -2.698213069875623E+09, -5.658971584110928E+09, 4.812097307737808E+08,
2459629.500000000, A.D. 2022-Feb-19 00:00:00.0000, -2.695829700750449E+09, -5.660689661487677E+09, 4.810407493677373E+08,
2459636.500000000, A.D. 2022-Feb-26 00:00:00.0000, -2.693445872005882E+09, -5.662406606968773E+09, 4.808716751339133E+08,
2459643.500000000, A.D. 2022-Mar-05 00:00:00.0000, -2.691061584821595E+09, -5.664122418387923E+09, 4.807025082396309E+08,
2459650.500000000, A.D. 2022-Mar-12 00:00:00.0000, -2.688676840857034E+09, -5.665837093720758E+09, 4.805332488645282E+08,
2459657.500000000, A.D. 2022-Mar-19 00:00:00.0000, -2.686291642295407E+09, -5.667550631166642E+09, 4.803638972047515E+08,
2459664.500000000, A.D. 2022-Mar-26 00:00:00.0000, -2.683905991875943E+09, -5.669263029312843E+09, 4.801944534695008E+08,
2459671.500000000, A.D. 2022-Apr-02 00:00:00.0000, -2.681519892846614E+09, -5.670974287436622E+09, 4.800249178588529E+08,
2459678.500000000, A.D. 2022-Apr-09 00:00:00.0000, -2.679133348565274E+09, -5.672684405940190E+09, 4.798552904980919E+08,
2459685.500000000, A.D. 2022-Apr-16 00:00:00.0000, -2.676746361392079E+09, -5.674393386264269E+09, 4.796855713490574E+08,
2459692.500000000, A.D. 2022-Apr-23 00:00:00.0000, -2.674358932142056E+09, -5.676101229195755E+09, 4.795157603033638E+08,
2459699.500000000, A.D. 2022-Apr-30 00:00:00.0000, -2.671971061967973E+09, -5.677807933814631E+09, 4.793458574454665E+08,
2459706.500000000, A.D. 2022-May-07 00:00:00.0000, -2.669582753610794E+09, -5.679513499053551E+09, 4.791758630432940E+08,
2459713.500000000, A.D. 2022-May-14 00:00:00.0000, -2.667194010628321E+09, -5.681217924831818E+09, 4.790057773872557E+08,
2459720.500000000, A.D. 2022-May-21 00:00:00.0000, -2.664804836633103E+09, -5.682921212004968E+09, 4.788356007259207E+08,
2459727.500000000, A.D. 2022-May-28 00:00:00.0000, -2.662415235018419E+09, -5.684623362088649E+09, 4.786653332639475E+08,
2459734.500000000, A.D. 2022-Jun-04 00:00:00.0000, -2.660025208895196E+09, -5.686324377069536E+09, 4.784949751713097E+08,
2459741.500000000, A.D. 2022-Jun-11 00:00:00.0000, -2.657634761095184E+09, -5.688024259300918E+09, 4.783245265907600E+08,
2459748.500000000, A.D. 2022-Jun-18 00:00:00.0000, -2.655243894201627E+09, -5.689723011469524E+09, 4.781539876411459E+08,
2459755.500000000, A.D. 2022-Jun-25 00:00:00.0000, -2.652852610577987E+09, -5.691420636666478E+09, 4.779833584112253E+08,
2459762.500000000, A.D. 2022-Jul-02 00:00:00.0000, -2.650460912260621E+09, -5.693117138627897E+09, 4.778126389264295E+08,
2459769.500000000, A.D. 2022-Jul-09 00:00:00.0000, -2.648068800325116E+09, -5.694812521967948E+09, 4.776418290673718E+08,
2459776.500000000, A.D. 2022-Jul-16 00:00:00.0000, -2.645676273781422E+09, -5.696506791321337E+09, 4.774709285337813E+08,
2459783.500000000, A.D. 2022-Jul-23 00:00:00.0000, -2.643283330196181E+09, -5.698199949317485E+09, 4.772999370620751E+08,
2459790.500000000, A.D. 2022-Jul-30 00:00:00.0000, -2.640889967958150E+09, -5.699891996740226E+09, 4.771288546149590E+08,
2459797.500000000, A.D. 2022-Aug-06 00:00:00.0000, -2.638496186587963E+09, -5.701582934224889E+09, 4.769576812661719E+08,
2459804.500000000, A.D. 2022-Aug-13 00:00:00.0000, -2.636101985915408E+09, -5.703272762738333E+09, 4.767864170812061E+08,
2459811.500000000, A.D. 2022-Aug-20 00:00:00.0000, -2.633707365693593E+09, -5.704961483345309E+09, 4.766150620970712E+08,
2459818.500000000, A.D. 2022-Aug-27 00:00:00.0000, -2.631312325581820E+09, -5.706649096987719E+09, 4.764436163356938E+08,
2459825.500000000, A.D. 2022-Sep-03 00:00:00.0000, -2.628916865249283E+09, -5.708335604387334E+09, 4.762720798193767E+08,
2459832.500000000, A.D. 2022-Sep-10 00:00:00.0000, -2.626520984509468E+09, -5.710021006048030E+09, 4.761004525821192E+08,
2459839.500000000, A.D. 2022-Sep-17 00:00:00.0000, -2.624124683455836E+09, -5.711705302359292E+09, 4.759287346740201E+08,
2459846.500000000, A.D. 2022-Sep-24 00:00:00.0000, -2.621727962538385E+09, -5.713388493851869E+09, 4.757569261490357E+08,
2459853.500000000, A.D. 2022-Oct-01 00:00:00.0000, -2.619330822341073E+09, -5.715070581627865E+09, 4.755850270121372E+08,
2459860.500000000, A.D. 2022-Oct-08 00:00:00.0000, -2.616933262652823E+09, -5.716751567443193E+09, 4.754130371310005E+08,
2459867.500000000, A.D. 2022-Oct-15 00:00:00.0000, -2.614535281763949E+09, -5.718431452243219E+09, 4.752409562954578E+08,
2459874.500000000, A.D. 2022-Oct-22 00:00:00.0000, -2.612136878169574E+09, -5.720110234835481E+09, 4.750687844869423E+08,
2459881.500000000, A.D. 2022-Oct-29 00:00:00.0000, -2.609738052182220E+09, -5.721787913292957E+09, 4.748965219165757E+08,
2459888.500000000, A.D. 2022-Nov-05 00:00:00.0000, -2.607338805354295E+09, -5.723464486346764E+09, 4.747241688631012E+08,
2459895.500000000, A.D. 2022-Nov-12 00:00:00.0000, -2.604939139675246E+09, -5.725139953501040E+09, 4.745517255941715E+08,
2459902.500000000, A.D. 2022-Nov-19 00:00:00.0000, -2.602539057262797E+09, -5.726814314824123E+09, 4.743791923588266E+08,
2459909.500000000, A.D. 2022-Nov-26 00:00:00.0000, -2.600138560286032E+09, -5.728487570813388E+09, 4.742065693945000E+08,
2459916.500000000, A.D. 2022-Dec-03 00:00:00.0000, -2.597737650954294E+09, -5.730159722345217E+09, 4.740338569322629E+08,
2459923.500000000, A.D. 2022-Dec-10 00:00:00.0000, -2.595336331526379E+09, -5.731830770691467E+09, 4.738610551976242E+08,
2459930.500000000, A.D. 2022-Dec-17 00:00:00.0000, -2.592934604315306E+09, -5.733500717627393E+09, 4.736881644025583E+08,
2459937.500000000, A.D. 2022-Dec-24 00:00:00.0000, -2.590532471579266E+09, -5.735169565696862E+09, 4.735151847133658E+08,
2459944.500000000, A.D. 2022-Dec-31 00:00:00.0000, -2.588129934941124E+09, -5.736837318527368E+09, 4.733421161704023E+08,
2459951.500000000, A.D. 2023-Jan-07 00:00:00.0000, -2.585726994213759E+09, -5.738503980232431E+09, 4.731689586271021E+08,
2459958.500000000, A.D. 2023-Jan-14 00:00:00.0000, -2.583323647598254E+09, -5.740169553404602E+09, 4.729957119294069E+08,
2459965.500000000, A.D. 2023-Jan-21 00:00:00.0000, -2.580919893899690E+09, -5.741834038871662E+09, 4.728223761355302E+08,
2459972.500000000, A.D. 2023-Jan-28 00:00:00.0000, -2.578515733092530E+09, -5.743497437411557E+09, 4.726489514237058E+08,
2459979.500000000, A.D. 2023-Feb-04 00:00:00.0000, -2.576111165444176E+09, -5.745159750398305E+09, 4.724754379545770E+08,
2459986.500000000, A.D. 2023-Feb-11 00:00:00.0000, -2.573706190991861E+09, -5.746820979572390E+09, 4.723018358371563E+08,
2459993.500000000, A.D. 2023-Feb-18 00:00:00.0000, -2.571300809436105E+09, -5.748481126758720E+09, 4.721281451370044E+08,
2460000.500000000, A.D. 2023-Feb-25 00:00:00.0000, -2.568895020187812E+09, -5.750140193693743E+09, 4.719543658894525E+08,
2460007.500000000, A.D. 2023-Mar-04 00:00:00.0000, -2.566488822466651E+09, -5.751798181942659E+09, 4.717804981101649E+08,
2460014.500000000, A.D. 2023-Mar-11 00:00:00.0000, -2.564082215421914E+09, -5.753455092906076E+09, 4.716065418006725E+08,
2460021.500000000, A.D. 2023-Mar-18 00:00:00.0000, -2.561675198228599E+09, -5.755110927965209E+09, 4.714324969407065E+08,
2460028.500000000, A.D. 2023-Mar-25 00:00:00.0000, -2.559267769955204E+09, -5.756765688812710E+09, 4.712583634450421E+08,
2460035.500000000, A.D. 2023-Apr-01 00:00:00.0000, -2.556859928778512E+09, -5.758419377575436E+09, 4.710841410782971E+08,
2460042.500000000, A.D. 2023-Apr-08 00:00:00.0000, -2.554451671160627E+09, -5.760071995503976E+09, 4.709098294844265E+08,
2460049.500000000, A.D. 2023-Apr-15 00:00:00.0000, -2.552042993325136E+09, -5.761723541334979E+09, 4.707354284550571E+08,
2460056.500000000, A.D. 2023-Apr-22 00:00:00.0000, -2.549633893223118E+09, -5.763374012378074E+09, 4.705609380214202E+08,
2460063.500000000, A.D. 2023-Apr-29 00:00:00.0000, -2.547224370253900E+09, -5.765023406074457E+09, 4.703863583031616E+08,
2460070.500000000, A.D. 2023-May-06 00:00:00.0000, -2.544814424500738E+09, -5.766671720245885E+09, 4.702116894210124E+08,
2460077.500000000, A.D. 2023-May-13 00:00:00.0000, -2.542404056458165E+09, -5.768318952927530E+09, 4.700369314897916E+08,
2460084.500000000, A.D. 2023-May-20 00:00:00.0000, -2.539993267016832E+09, -5.769965102275682E+09, 4.698620846299553E+08,
2460091.500000000, A.D. 2023-May-27 00:00:00.0000, -2.537582057512341E+09, -5.771610166579642E+09, 4.696871489772973E+08,
2460098.500000000, A.D. 2023-Jun-03 00:00:00.0000, -2.535170429780464E+09, -5.773254144351795E+09, 4.695121246873965E+08,
2460105.500000000, A.D. 2023-Jun-10 00:00:00.0000, -2.532758386194973E+09, -5.774897034509491E+09, 4.693370119311981E+08,
2460112.500000000, A.D. 2023-Jun-17 00:00:00.0000, -2.530345929599031E+09, -5.776538836708845E+09, 4.691618108683875E+08,
2460119.500000000, A.D. 2023-Jun-24 00:00:00.0000, -2.527933062810151E+09, -5.778179551774745E+09, 4.689865215734973E+08,
2460126.500000000, A.D. 2023-Jul-01 00:00:00.0000, -2.525519787445601E+09, -5.779819181398920E+09, 4.688111439589820E+08,
2460133.500000000, A.D. 2023-Jul-08 00:00:00.0000, -2.523106103742225E+09, -5.781457726283969E+09, 4.686356779158182E+08,
2460140.500000000, A.D. 2023-Jul-15 00:00:00.0000, -2.520692012647428E+09, -5.783095185563087E+09, 4.684601235573571E+08,
$$EOE